start=new Date('2022-12-02T00:00:00.000Z').valueOf();
sats=[{"SEMIMAJOR_AXIS":"6925.349","MEAN_ELEMENT_THEORY":"SGP4","TLE_LINE1":"1 47560U 21009N   22335.69234532  .00000399  00000-0  45719-4 0  9994","RCS_SIZE":"LARGE","MEAN_MOTION_DDOT":"0.0000000000000","COUNTRY_CODE":"US","ELEMENT_SET_NO":"999","OBJECT_TYPE":"PAYLOAD","OBJECT_ID":"2021-009N","MEAN_ANOMALY":"300.9418","MEAN_MOTION":"15.06399761","GP_ID":"219304946","RA_OF_ASC_NODE":"321.6612","APOAPSIS":"548.355","LAUNCH_DATE":"2021-02-04","CENTER_NAME":"EARTH","ECCENTRICITY":"0.00016470","BSTAR":"0.00004571900000","EPHEMERIS_TYPE":"0","DECAY_DATE":null,"MEAN_MOTION_DOT":"0.00000399","TIME_SYSTEM":"UTC","REF_FRAME":"TEME","PERIAPSIS":"546.074","ARG_OF_PERICENTER":"59.1733","SITE":"AFETR","NORAD_CAT_ID":"47560","EPOCH":"2022-12-01T16:36:58.635648","TLE_LINE2":"2 47560  53.0559 321.6612 0001647  59.1733 300.9418 15.06399761101114","INCLINATION":"53.0559","REV_AT_EPOCH":"10111","FILE":"3678231","PERIOD":"95.592","OBJECT_NAME":"STARLINK-1959","CLASSIFICATION_TYPE":"U"},{"PERIAPSIS":"546.101","ARG_OF_PERICENTER":"75.3315","SITE":"AFETR","NORAD_CAT_ID":"47561","EPOCH":"2022-12-01T09:57:36.082080","TLE_LINE2":"2 47561  53.0561 342.9287 0001604  75.3315 284.7851 15.06400458101409","INCLINATION":"53.0561","PERIOD":"95.592","FILE":"3677818","REV_AT_EPOCH":"10140","OBJECT_NAME":"STARLINK-1960","CLASSIFICATION_TYPE":"U","BSTAR":"0.00019371000000","DECAY_DATE":null,"EPHEMERIS_TYPE":"0","MEAN_MOTION_DOT":"0.00002605","TIME_SYSTEM":"UTC","REF_FRAME":"TEME","OBJECT_TYPE":"PAYLOAD","OBJECT_ID":"2021-009P","MEAN_ANOMALY":"284.7851","MEAN_MOTION":"15.06400458","GP_ID":"219277461","APOAPSIS":"548.323","RA_OF_ASC_NODE":"342.9287","LAUNCH_DATE":"2021-02-04","CENTER_NAME":"EARTH","ECCENTRICITY":"0.00016040","SEMIMAJOR_AXIS":"6925.347","MEAN_ELEMENT_THEORY":"SGP4","TLE_LINE1":"1 47561U 21009P   22335.41500095  .00002605  00000-0  19371-3 0  9991","RCS_SIZE":"LARGE","COUNTRY_CODE":"US","MEAN_MOTION_DDOT":"0.0000000000000","ELEMENT_SET_NO":"999"},{"MEAN_ANOMALY":"298.0435","MEAN_MOTION":"15.06397047","OBJECT_ID":"2021-009Q","OBJECT_TYPE":"PAYLOAD","LAUNCH_DATE":"2021-02-04","APOAPSIS":"548.582","RA_OF_ASC_NODE":"341.3744","CENTER_NAME":"EARTH","ECCENTRICITY":"0.00019630","GP_ID":"219303450","MEAN_ELEMENT_THEORY":"SGP4","SEMIMAJOR_AXIS":"6925.358","ELEMENT_SET_NO":"999","COUNTRY_CODE":"US","MEAN_MOTION_DDOT":"0.0000000000000","TLE_LINE1":"1 47562U 21009Q   22335.76147947 -.00000488  00000-0 -13826-4 0  9992","RCS_SIZE":"LARGE","NORAD_CAT_ID":"47562","EPOCH":"2022-12-01T18:16:31.826208","TLE_LINE2":"2 47562  53.0568 341.3744 0001963  62.0753 298.0435 15.06397047100847","ARG_OF_PERICENTER":"62.0753","PERIAPSIS":"545.863","SITE":"AFETR","CLASSIFICATION_TYPE":"U","OBJECT_NAME":"STARLINK-1961","FILE":"3678231","PERIOD":"95.592","REV_AT_EPOCH":"10084","INCLINATION":"53.0568","BSTAR":"-0.00001382600000","REF_FRAME":"TEME","TIME_SYSTEM":"UTC","EPHEMERIS_TYPE":"0","DECAY_DATE":null,"MEAN_MOTION_DOT":"-0.00000488"},{"ELEMENT_SET_NO":"999","COUNTRY_CODE":"US","MEAN_MOTION_DDOT":"0.0000000000000","TLE_LINE1":"1 47563U 21009R   22335.71724234  .00001110  00000-0  93373-4 0  9994","RCS_SIZE":"LARGE","MEAN_ELEMENT_THEORY":"SGP4","SEMIMAJOR_AXIS":"6925.327","LAUNCH_DATE":"2021-02-04","APOAPSIS":"548.427","RA_OF_ASC_NODE":"341.5824","CENTER_NAME":"EARTH","ECCENTRICITY":"0.00017840","GP_ID":"219304201","MEAN_ANOMALY":"304.4415","MEAN_MOTION":"15.06407069","OBJECT_ID":"2021-009R","OBJECT_TYPE":"PAYLOAD","REF_FRAME":"TEME","TIME_SYSTEM":"UTC","DECAY_DATE":null,"EPHEMERIS_TYPE":"0","MEAN_MOTION_DOT":"0.00001110","BSTAR":"0.00009337300000","CLASSIFICATION_TYPE":"U","OBJECT_NAME":"STARLINK-1962","FILE":"3678231","PERIOD":"95.592","REV_AT_EPOCH":"10083","INCLINATION":"53.0549","NORAD_CAT_ID":"47563","EPOCH":"2022-12-01T17:12:49.738176","TLE_LINE2":"2 47563  53.0549 341.5824 0001784  55.6743 304.4415 15.06407069100831","PERIAPSIS":"545.956","ARG_OF_PERICENTER":"55.6743","SITE":"AFETR"},{"GP_ID":"219304447","RA_OF_ASC_NODE":"331.5766","APOAPSIS":"548.242","LAUNCH_DATE":"2021-02-04","ECCENTRICITY":"0.00015090","CENTER_NAME":"EARTH","OBJECT_TYPE":"PAYLOAD","OBJECT_ID":"2021-009S","MEAN_MOTION":"15.06405318","MEAN_ANOMALY":"288.5673","TLE_LINE1":"1 47564U 21009S   22335.71816257  .00002023  00000-0  15463-3 0  9999","RCS_SIZE":"LARGE","COUNTRY_CODE":"US","MEAN_MOTION_DDOT":"0.0000000000000","ELEMENT_SET_NO":"999","SEMIMAJOR_AXIS":"6925.332","MEAN_ELEMENT_THEORY":"SGP4","INCLINATION":"53.0559","PERIOD":"95.592","FILE":"3678231","REV_AT_EPOCH":"10097","OBJECT_NAME":"STARLINK-1963","CLASSIFICATION_TYPE":"U","ARG_OF_PERICENTER":"71.5480","PERIAPSIS":"546.152","SITE":"AFETR","NORAD_CAT_ID":"47564","EPOCH":"2022-12-01T17:14:09.246048","TLE_LINE2":"2 47564  53.0559 331.5766 0001509  71.5480 288.5673 15.06405318100975","DECAY_DATE":null,"EPHEMERIS_TYPE":"0","MEAN_MOTION_DOT":"0.00002023","TIME_SYSTEM":"UTC","REF_FRAME":"TEME","BSTAR":"0.00015463000000"},{"MEAN_ELEMENT_THEORY":"SGP4","SEMIMAJOR_AXIS":"6925.362","ELEMENT_SET_NO":"999","MEAN_MOTION_DDOT":"0.0000000000000","COUNTRY_CODE":"US","TLE_LINE1":"1 47565U 21009T   22335.71448488  .00000452  00000-0  49268-4 0  9992","RCS_SIZE":"LARGE","MEAN_ANOMALY":"305.1708","MEAN_MOTION":"15.06395573","OBJECT_ID":"2021-009T","OBJECT_TYPE":"PAYLOAD","LAUNCH_DATE":"2021-02-04","APOAPSIS":"548.481","RA_OF_ASC_NODE":"331.5865","ECCENTRICITY":"0.00018100","CENTER_NAME":"EARTH","GP_ID":"219303702","BSTAR":"0.00004926800000","REF_FRAME":"TEME","TIME_SYSTEM":"UTC","EPHEMERIS_TYPE":"0","DECAY_DATE":null,"MEAN_MOTION_DOT":"0.00000452","NORAD_CAT_ID":"47565","EPOCH":"2022-12-01T17:08:51.493632","TLE_LINE2":"2 47565  53.0556 331.5865 0001810  54.9450 305.1708 15.06395573100976","PERIAPSIS":"545.974","ARG_OF_PERICENTER":"54.9450","SITE":"AFETR","CLASSIFICATION_TYPE":"U","REV_AT_EPOCH":"10097","FILE":"3678231","PERIOD":"95.592","OBJECT_NAME":"STARLINK-1964","INCLINATION":"53.0556"},{"SITE":"AFETR","ARG_OF_PERICENTER":"64.9151","PERIAPSIS":"546.025","TLE_LINE2":"2 47566  53.0562 321.6217 0001642  64.9151 295.2009 15.06416823101119","EPOCH":"2022-12-01T16:59:33.127584","NORAD_CAT_ID":"47566","INCLINATION":"53.0562","FILE":"3678231","PERIOD":"95.591","OBJECT_NAME":"STARLINK-1965","REV_AT_EPOCH":"10111","CLASSIFICATION_TYPE":"U","BSTAR":"-0.00000697250000","MEAN_MOTION_DOT":"-0.00000386","DECAY_DATE":null,"EPHEMERIS_TYPE":"0","TIME_SYSTEM":"UTC","REF_FRAME":"TEME","OBJECT_TYPE":"PAYLOAD","OBJECT_ID":"2021-009U","MEAN_MOTION":"15.06416823","MEAN_ANOMALY":"295.2009","GP_ID":"219303950","CENTER_NAME":"EARTH","ECCENTRICITY":"0.00016420","RA_OF_ASC_NODE":"321.6217","APOAPSIS":"548.299","LAUNCH_DATE":"2021-02-04","SEMIMAJOR_AXIS":"6925.297","MEAN_ELEMENT_THEORY":"SGP4","RCS_SIZE":"LARGE","TLE_LINE1":"1 47566U 21009U   22335.70802231 -.00000386  00000-0 -69725-5 0  9991","MEAN_MOTION_DDOT":"0.0000000000000","COUNTRY_CODE":"US","ELEMENT_SET_NO":"999"},{"ELEMENT_SET_NO":"999","MEAN_MOTION_DDOT":"0.0000000000000","COUNTRY_CODE":"US","RCS_SIZE":"LARGE","TLE_LINE1":"1 47567U 21009V   22335.81124411  .00002700  00000-0  20005-3 0  9997","MEAN_ELEMENT_THEORY":"SGP4","SEMIMAJOR_AXIS":"6925.334","CENTER_NAME":"EARTH","ECCENTRICITY":"0.00017750","LAUNCH_DATE":"2021-02-04","APOAPSIS":"548.428","RA_OF_ASC_NODE":"1.1559","GP_ID":"219304701","MEAN_ANOMALY":"285.9684","MEAN_MOTION":"15.06404671","OBJECT_ID":"2021-009V","OBJECT_TYPE":"PAYLOAD","REF_FRAME":"TEME","TIME_SYSTEM":"UTC","MEAN_MOTION_DOT":"0.00002700","DECAY_DATE":null,"EPHEMERIS_TYPE":"0","BSTAR":"0.00020005000000","CLASSIFICATION_TYPE":"U","FILE":"3678231","OBJECT_NAME":"STARLINK-1966","PERIOD":"95.592","REV_AT_EPOCH":"10056","INCLINATION":"53.0560","TLE_LINE2":"2 47567  53.0560   1.1559 0001775  74.1501 285.9684 15.06404671100567","NORAD_CAT_ID":"47567","EPOCH":"2022-12-01T19:28:11.491104","SITE":"AFETR","PERIAPSIS":"545.970","ARG_OF_PERICENTER":"74.1501"},{"INCLINATION":"53.0551","CLASSIFICATION_TYPE":"U","FILE":"3678231","REV_AT_EPOCH":"10056","PERIOD":"95.592","OBJECT_NAME":"STARLINK-1967","ARG_OF_PERICENTER":"59.7659","PERIAPSIS":"545.988","SITE":"AFETR","NORAD_CAT_ID":"47568","EPOCH":"2022-12-01T18:29:47.553792","TLE_LINE2":"2 47568  53.0551   1.3425 0001742  59.7659 300.3502 15.06406146100569","EPHEMERIS_TYPE":"0","DECAY_DATE":null,"MEAN_MOTION_DOT":"0.00001224","REF_FRAME":"TEME","TIME_SYSTEM":"UTC","BSTAR":"0.00010104000000","GP_ID":"219304947","LAUNCH_DATE":"2021-02-04","APOAPSIS":"548.401","RA_OF_ASC_NODE":"1.3425","CENTER_NAME":"EARTH","ECCENTRICITY":"0.00017420","OBJECT_ID":"2021-009W","OBJECT_TYPE":"PAYLOAD","MEAN_MOTION":"15.06406146","MEAN_ANOMALY":"300.3502","TLE_LINE1":"1 47568U 21009W   22335.77068928  .00001224  00000-0  10104-3 0  9992","RCS_SIZE":"LARGE","ELEMENT_SET_NO":"999","COUNTRY_CODE":"US","MEAN_MOTION_DDOT":"0.0000000000000","SEMIMAJOR_AXIS":"6925.330","MEAN_ELEMENT_THEORY":"SGP4"},{"CENTER_NAME":"EARTH","ECCENTRICITY":"0.00062300","LAUNCH_DATE":"2021-02-04","APOAPSIS":"304.014","RA_OF_ASC_NODE":"202.3672","GP_ID":"219265653","MEAN_MOTION":"15.90868453","MEAN_ANOMALY":"211.2660","OBJECT_ID":"2021-009X","OBJECT_TYPE":"PAYLOAD","ELEMENT_SET_NO":"999","MEAN_MOTION_DDOT":"0.0000372930000","COUNTRY_CODE":"US","RCS_SIZE":"LARGE","TLE_LINE1":"1 47569U 21009X   22335.04090913  .00266132  37293-4  83907-3 0  9992","MEAN_ELEMENT_THEORY":"SGP4","SEMIMAJOR_AXIS":"6677.988","CLASSIFICATION_TYPE":"U","PERIOD":"90.517","FILE":"3677495","OBJECT_NAME":"STARLINK-1968","REV_AT_EPOCH":"10274","INCLINATION":"53.0476","TLE_LINE2":"2 47569  53.0476 202.3672 0006230 148.8736 211.2660 15.90868453102749","NORAD_CAT_ID":"47569","EPOCH":"2022-12-01T00:58:54.548832","SITE":"AFETR","PERIAPSIS":"295.693","ARG_OF_PERICENTER":"148.8736","REF_FRAME":"TEME","TIME_SYSTEM":"UTC","MEAN_MOTION_DOT":"0.00266132","EPHEMERIS_TYPE":"0","DECAY_DATE":null,"BSTAR":"0.00083907000000"}];
